NORAD_CAT_ID,OBJECT_NAME,OBJECT_TYPE,EPOCH,MEAN_MOTION,ECCENTRICITY,INCLINATION,RA_OF_ASC_NODE,ARG_OF_PERICENTER,MEAN_ANOMALY,BSTAR,MEAN_MOTION_DOT,MEAN_MOTION_DDOT,TLE_LINE0,TLE_LINE1,TLE_LINE2,SEMIMAJOR_AXIS,PERIOD,APOGEE,PERIGEE,DECAYED
52702.0,STARLINK-4033,PAYLOAD,2023-10-23 01:02:21,15.08828207,0.0001312,53.2162,88.6524,120.8468,239.2653,-0.00024229,-4.141e-05,0.0,0 STARLINK-4033,1 52702U 22053AY  23296.04330463 -.00004141  00000-0 -24229-3 0  9997,2 52702  53.2162  88.6524 0001312 120.8468 239.2653 15.08828207 79542,6917.916,95.438,540.689,538.874,0.0
52702.0,STARLINK-4033,PAYLOAD,2023-10-23 20:06:59,15.08837754,0.0001227,53.2164,85.0856,89.4587,270.6546,-4.1769e-05,-9.52e-06,0.0,0 STARLINK-4033,1 52702U 22053AY  23296.83818359 -.00000952  00000-0 -41769-4 0  9994,2 52702  53.2164  85.0856 0001227  89.4587 270.6546 15.08837754 79660,6917.887,95.438,540.601,538.903,0.0
52702.0,STARLINK-4033,PAYLOAD,2023-10-24 08:50:04,15.08832511,0.0001265,53.2166,82.7063,80.6548,279.4587,-3.1183e-05,-7.84e-06,0.0,0 STARLINK-4033,1 52702U 22053AY  23297.36810888 -.00000784  00000-0 -31183-4 0  9994,2 52702  53.2166  82.7063 0001265  80.6548 279.4587 15.08832511 80152,6917.903,95.438,540.643,538.893,0.0
52702.0,STARLINK-4033,PAYLOAD,2023-10-25 15:02:24,15.08839051,0.0001295,53.2167,77.0569,79.0356,281.0782,0.00020883,3.037e-05,0.0,0 STARLINK-4033,1 52702U 22053AY  23298.62667114  .00003037  00000-0  20883-3 0  9992,2 52702  53.2167  77.0569 0001295  79.0356 281.0782 15.08839051 79939,6917.883,95.438,540.644,538.852,0.0
52702.0,STARLINK-4033,PAYLOAD,2023-10-26 13:17:48,15.08840579,0.0001546,53.2162,72.894,83.6693,276.4475,0.00013114,1.8e-05,0.0,0 STARLINK-4033,1 52702U 22053AY  23299.55403254  .00001800  00000-0  13114-3 0  9993,2 52702  53.2162  72.8940 0001546  83.6693 276.4475 15.08840579 80480,6917.879,95.438,540.813,538.674,0.0
52702.0,STARLINK-4033,PAYLOAD,2023-10-26 16:28:34,15.08843178,0.0001768,53.2171,72.2975,82.6775,277.4418,0.00015805,2.228e-05,0.0,0 STARLINK-4033,1 52702U 22053AY  23299.68651191  .00002228  00000-0  15805-3 0  9996,2 52702  53.2171  72.2975 0001768  82.6775 277.4418 15.08843178 80091,6917.871,95.437,540.959,538.513,0.0
52702.0,STARLINK-4033,PAYLOAD,2023-10-27 02:00:53,15.08846828,0.0001506,53.2172,70.5149,85.6652,274.4512,0.00023171,3.402e-05,0.0,0 STARLINK-4033,1 52702U 22053AY  23300.08394994  .00003402  00000-0  23171-3 0  9998,2 52702  53.2172  70.5149 0001506  85.6652 274.4512 15.08846828 80562,6917.86,95.437,540.766,538.683,0.0
52702.0,STARLINK-4033,PAYLOAD,2023-10-28 01:51:39,15.08848875,0.0001262,53.2169,66.0502,84.7924,275.3212,0.00015686,2.21e-05,0.0,0 STARLINK-4033,1 52702U 22053AY  23301.07754540  .00002210  00000-0  15686-3 0  9993,2 52702  53.2169  66.0502 0001262  84.7924 275.3212 15.08848875 80305,6917.853,95.437,540.591,538.845,0.0
52702.0,STARLINK-4033,PAYLOAD,2023-10-28 14:34:45,15.08838534,0.0001359,53.2173,63.6741,79.6621,280.4525,4.8255e-06,-2.11e-06,0.0,0 STARLINK-4033,1 52702U 22053AY  23301.60746997 -.00000211  00000-0  48255-5 0  9999,2 52702  53.2173  63.6741 0001359  79.6621 280.4525 15.08838534 80790,6917.885,95.438,540.69,538.81,0.0
52702.0,STARLINK-4033,PAYLOAD,2023-10-29 12:50:08,15.08852568,0.0001593,53.2188,59.5118,86.1991,273.9184,0.00030542,4.578e-05,0.0,0 STARLINK-4033,1 52702U 22053AY  23302.53482618  .00004578  00000-0  30542-3 0  9996,2 52702  53.2188  59.5118 0001593  86.1991 273.9184 15.08852568 80523,6917.842,95.437,540.809,538.605,0.0
52702.0,STARLINK-4033,PAYLOAD,2023-10-29 14:25:32,15.08853565,0.0001599,53.2189,59.2136,86.248,273.8695,0.00054666,8.426e-05,0.0,0 STARLINK-4033,1 52702U 22053AY  23302.60106610  .00008426  00000-0  54666-3 0  9998,2 52702  53.2189  59.2136 0001599  86.2480 273.8695 15.08853565 80941,6917.839,95.437,540.81,538.598,0.0
52702.0,STARLINK-4033,PAYLOAD,2023-10-29 17:36:18,15.08858834,0.0001596,53.2193,58.6176,89.4391,270.6784,0.00063952,9.91e-05,0.0,0 STARLINK-4033,1 52702U 22053AY  23302.73354372  .00009910  00000-0  63952-3 0  9999,2 52702  53.2193  58.6176 0001596  89.4391 270.6784 15.08858834 80966,6917.823,95.436,540.792,538.584,0.0
52702.0,STARLINK-4033,PAYLOAD,2023-10-30 11:05:33,15.08833979,0.0001443,53.2191,55.3484,94.7948,265.3209,-2.6685e-05,-7.13e-06,0.0,0 STARLINK-4033,1 52702U 22053AY  23303.46219244 -.00000713  00000-0 -26685-4 0  9995,2 52702  53.2191  55.3484 0001443  94.7948 265.3209 15.08833979 80661,6917.899,95.438,540.762,538.766,0.0
52702.0,STARLINK-4033,PAYLOAD,2023-10-30 19:02:29,15.0883511,0.0001488,53.219,53.8613,88.1649,271.9513,0.00020184,2.925e-05,0.0,0 STARLINK-4033,1 52702U 22053AY  23303.79339469  .00002925  00000-0  20184-3 0  9995,2 52702  53.2190  53.8613 0001488  88.1649 271.9513 15.08835110 81123,6917.895,95.438,540.79,538.731,0.0
52702.0,STARLINK-4033,PAYLOAD,2023-10-31 12:31:44,15.08834139,0.0001655,53.2186,50.5911,90.6424,269.4757,0.00016559,2.348e-05,0.0,0 STARLINK-4033,1 52702U 22053AY  23304.52204062  .00002348  00000-0  16559-3 0  9997,2 52702  53.2186  50.5911 0001655  90.6424 269.4757 15.08834139 80826,6917.898,95.438,540.908,538.618,0.0
52702.0,STARLINK-4033,PAYLOAD,2023-10-31 14:07:07,15.08842844,0.0001454,53.219,50.2963,86.6165,273.4994,0.00039249,5.965e-05,0.0,0 STARLINK-4033,1 52702U 22053AY  23304.58827892  .00005965  00000-0  39249-3 0  9994,2 52702  53.2190  50.2963 0001454  86.6165 273.4994 15.08842844 81246,6917.872,95.437,540.743,538.731,0.0
52702.0,STARLINK-4033,PAYLOAD,2023-11-01 13:57:54,15.08847043,0.0001459,53.2198,45.8395,90.4142,269.7017,0.00036305,5.496e-05,0.0,0 STARLINK-4033,1 52702U 22053AY  23305.58187825  .00005496  00000-0  36305-3 0  9999,2 52702  53.2198  45.8395 0001459  90.4142 269.7017 15.08847043 81392,6917.859,95.437,540.733,538.715,0.0
52702.0,STARLINK-4033,PAYLOAD,2023-11-02 13:48:40,15.08850852,0.0001289,53.2177,41.3752,85.5359,274.578,0.00017477,2.495e-05,0.0,0 STARLINK-4033,1 52702U 22053AY  23306.57547437  .00002495  00000-0  17477-3 0  9993,2 52702  53.2177  41.3752 0001289  85.5359 274.5780 15.08850852 81138,6917.847,95.437,540.604,538.821,0.0
52702.0,STARLINK-4033,PAYLOAD,2023-11-02 23:21:00,15.08841372,0.0001294,53.2185,39.5925,93.7292,266.3848,4.3404e-05,4.03e-06,0.0,0 STARLINK-4033,1 52702U 22053AY  23306.97291860  .00000403  00000-0  43404-4 0  9990,2 52702  53.2185  39.5925 0001294  93.7292 266.3848 15.08841372 81198,6917.876,95.437,540.636,538.846,0.0
52702.0,STARLINK-4033,PAYLOAD,2023-11-03 10:28:42,15.08834394,0.0001359,53.217,37.5107,88.9896,271.1251,-5.7527e-05,-1.203e-05,0.0,0 STARLINK-4033,1 52702U 22053AY  23307.43660347 -.00001203  00000-0 -57527-4 0  9994,2 52702  53.2170  37.5107 0001359  88.9896 271.1251 15.08834394 81266,6917.898,95.438,540.703,538.822,0.0
52702.0,STARLINK-4033,PAYLOAD,2023-11-03 13:39:28,15.08840171,0.0001669,53.2189,36.9145,84.2541,275.8641,3.2931e-05,2.36e-06,0.0,0 STARLINK-4033,1 52702U 22053AY  23307.56908160  .00000236  00000-0  32931-4 0  9991,2 52702  53.2189  36.9145 0001669  84.2541 275.8641 15.08840171 81692,6917.88,95.438,540.899,538.59,0.0
52702.0,STARLINK-4033,PAYLOAD,2023-11-03 15:14:51,15.0884107,0.0001676,53.2183,36.6156,78.4794,281.6386,5.8731e-05,6.47e-06,0.0,0 STARLINK-4033,1 52702U 22053AY  23307.63532126  .00000647  00000-0  58731-4 0  9996,2 52702  53.2183  36.6156 0001676  78.4794 281.6386 15.08841070 81700,6917.877,95.437,540.902,538.583,0.0
52702.0,STARLINK-4033,PAYLOAD,2023-11-04 13:30:15,15.08847675,0.0001448,53.2173,32.4553,87.0898,273.026,0.0001322,1.817e-05,0.0,0 STARLINK-4033,1 52702U 22053AY  23308.56267928  .00001817  00000-0  13220-3 0  9997,2 52702  53.2173  32.4553 0001448  87.0898 273.0260 15.08847675 81840,6917.857,95.437,540.724,538.72,0.0
52702.0,STARLINK-4033,PAYLOAD,2023-11-04 23:02:34,15.08843458,0.0001476,53.2181,30.6717,87.7423,272.3738,0.00014481,2.018e-05,0.0,0 STARLINK-4033,1 52702U 22053AY  23308.96012162  .00002018  00000-0  14481-3 0  9993,2 52702  53.2181  30.6717 0001476  87.7423 272.3738 15.08843458 81491,6917.87,95.437,540.756,538.714,0.0
52702.0,STARLINK-4033,PAYLOAD,2023-11-05 11:45:39,15.08846971,0.0001553,53.219,28.2903,95.9853,264.1316,0.00019797,2.865e-05,0.0,0 STARLINK-4033,1 52702U 22053AY  23309.49003952  .00002865  00000-0  19797-3 0  9994,2 52702  53.2190  28.2903 0001553  95.9853 264.1316 15.08846971 81983,6917.859,95.437,540.798,538.65,0.0
52702.0,STARLINK-4033,PAYLOAD,2023-11-06 11:36:25,15.08863323,0.0001805,53.2185,23.8294,88.2688,271.8511,0.00033008,4.972e-05,0.0,0 STARLINK-4033,1 52702U 22053AY  23310.48362843  .00004972  00000-0  33008-3 0  9994,2 52702  53.2185  23.8294 0001805  88.2688 271.8511 15.08863323 81726,6917.809,95.436,540.923,538.425,0.0
52702.0,STARLINK-4033,PAYLOAD,2023-11-07 11:27:16,15.08809295,0.0001387,53.2182,19.3694,88.6046,271.5105,-0.00018972,-3.303e-05,0.0,0 STARLINK-4033,1 52702U 22053AY  23311.47727127 -.00003303  00000-0 -18972-3 0  9996,2 52702  53.2182  19.3694 0001387  88.6046 271.5105 15.08809295 81874,6917.974,95.439,540.799,538.88,0.0
52702.0,STARLINK-4033,PAYLOAD,2023-11-08 11:18:02,15.08853748,0.0001741,53.2182,14.9127,90.327,269.7921,0.00072287,0.00011239,0.0,0 STARLINK-4033,1 52702U 22053AY  23312.47085969  .00011239  00000-0  72287-3 0  9992,2 52702  53.2182  14.9127 0001741  90.3270 269.7921 15.08853748 82024,6917.838,95.437,540.908,538.499,0.0
52702.0,STARLINK-4033,PAYLOAD,2023-11-09 00:01:07,15.088503,0.0001243,53.2182,12.5304,112.1864,247.926,0.00049281,7.566e-05,0.0,0 STARLINK-4033,1 52702U 22053AY  23313.00078446  .00007566  00000-0  49281-3 0  9990,2 52702  53.2182  12.5304 0001243 112.1864 247.9260 15.08850300 82108,6917.849,95.437,540.574,538.854,0.0
52702.0,STARLINK-4033,PAYLOAD,2023-11-09 09:33:26,15.08848229,0.0001493,53.2181,10.752,93.4191,266.6972,0.00044038,6.729e-05,0.0,0 STARLINK-4033,1 52702U 22053AY  23313.39822227  .00006729  00000-0  44038-3 0  9991,2 52702  53.2181  10.7520 0001493  93.4191 266.6972 15.08848229 82574,6917.855,95.437,540.753,538.687,0.0
